{"type": "FeatureCollection", "features": [ {"type": "Feature", "properties": {"norad_id": 66479, "name": "STARLINK-35581", "group": "last-30-days", "lat": -42.94611965341058, "lon": 0.21717738278444884, "alt_km": 417.8559928592358, "timestamp": "2025-12-08T23:34:02.739066+00:00", "meta": {"OBJECT_NAME": "STARLINK-35581", "OBJECT_ID": "2025-262Z", "EPOCH": "2025-12-08T14:00:01.999872", "MEAN_MOTION": 15.5072679, "ECCENTRICITY": 0.00012007, "INCLINATION": 43.0004, "RA_OF_ASC_NODE": 95.3372, "ARG_OF_PERICENTER": 271.5486, "MEAN_ANOMALY": 288.5835, "EPHEMERIS_TYPE": 0, "CLASSIFICATION_TYPE": "U", "NORAD_CAT_ID": 66479, "ELEMENT_SET_NO": 999, "REV_AT_EPOCH": 497, "BSTAR": -0.0054098529, "MEAN_MOTION_DOT": -0.00307188, "MEAN_MOTION_DDOT": 0}, "tle": {"line1": "1 66479U 25262Z   25342.58335648 -.00307188  00000+0 -54099-2 0  9994", "line2": "2 66479  43.0004  95.3372 0001200 271.5486 288.5835 15.50726790  4971"}}, "geometry": {"type": "Point", "coordinates": [0.21717738278444884, -42.94611965341058]}}, {"type": "Feature", "properties": {"norad_id": 66480, "name": "STARLINK-35670", "group": "last-30-days", "lat": -42.87452562123758, "lon": 7.905164329465599, "alt_km": 417.5729221751135, "timestamp": "2025-12-08T23:34:02.739076+00:00", "meta": {"OBJECT_NAME": "STARLINK-35670", "OBJECT_ID": "2025-262AA", "EPOCH": "2025-12-08T14:00:01.999872", "MEAN_MOTION": 15.50571016, "ECCENTRICITY": 0.00013719, "INCLINATION": 43.0002, "RA_OF_ASC_NODE": 95.3229, "ARG_OF_PERICENTER": 272.712, "MEAN_ANOMALY": 293.1312, "EPHEMERIS_TYPE": 0, "CLASSIFICATION_TYPE": "U", "NORAD_CAT_ID": 66480, "ELEMENT_SET_NO": 999, "REV_AT_EPOCH": 497, "BSTAR": -0.00063913755, "MEAN_MOTION_DOT": -0.00037646, "MEAN_MOTION_DDOT": 0}, "tle": {"line1": "1 66480U 25262AA  25342.58335648 -.00037646  00000+0 -63914-3 0  9992", "line2": "2 66480  43.0002  95.3229 0001371 272.7120 293.1312 15.50571016  4970"}}, "geometry": {"type": "Point", "coordinates": [7.905164329465599, -42.87452562123758]}}, {"type": "Feature", "properties": {"norad_id": 66481, "name": "STARLINK-35698", "group": "last-30-days", "lat": -42.73282595878981, "lon": 10.510396714741777, "alt_km": 417.4981792962426, "timestamp": "2025-12-08T23:34:02.739088+00:00", "meta": {"OBJECT_NAME": "STARLINK-35698", "OBJECT_ID": "2025-262AB", "EPOCH": "2025-12-08T14:00:01.999872", "MEAN_MOTION": 15.50612502, "ECCENTRICITY": 0.0001478, "INCLINATION": 43.0004, "RA_OF_ASC_NODE": 95.317, "ARG_OF_PERICENTER": 272.4831, "MEAN_ANOMALY": 295.2566, "EPHEMERIS_TYPE": 0, "CLASSIFICATION_TYPE": "U", "NORAD_CAT_ID": 66481, "ELEMENT_SET_NO": 999, "REV_AT_EPOCH": 497, "BSTAR": -0.0016122535, "MEAN_MOTION_DOT": -0.00093911, "MEAN_MOTION_DDOT": 0}, "tle": {"line1": "1 66481U 25262AB  25342.58335648 -.00093911  00000+0 -16123-2 0  9999", "line2": "2 66481  43.0004  95.3170 0001478 272.4831 295.2566 15.50612502  4972"}}, "geometry": {"type": "Point", "coordinates": [10.510396714741777, -42.73282595878981]}}, {"type": "Feature", "properties": {"norad_id": 66482, "name": "STARLINK-35648", "group": "last-30-days", "lat": -42.532638207486436, "lon": 13.092265507195503, "alt_km": 417.5933150856299, "timestamp": "2025-12-08T23:34:02.739098+00:00", "meta": {"OBJECT_NAME": "STARLINK-35648", "OBJECT_ID": "2025-262AC", "EPOCH": "2025-12-08T14:00:01.999872", "MEAN_MOTION": 15.50612112, "ECCENTRICITY": 0.00013211, "INCLINATION": 43.0002, "RA_OF_ASC_NODE": 95.3124, "ARG_OF_PERICENTER": 270.8837, "MEAN_ANOMALY": 298.7702, "EPHEMERIS_TYPE": 0, "CLASSIFICATION_TYPE": "U", "NORAD_CAT_ID": 66482, "ELEMENT_SET_NO": 999, "REV_AT_EPOCH": 481, "BSTAR": -0.0015590477, "MEAN_MOTION_DOT": -0.00090855, "MEAN_MOTION_DDOT": 0}, "tle": {"line1": "1 66482U 25262AC  25342.58335648 -.00090855  00000+0 -15590-2 0  9991", "line2": "2 66482  43.0002  95.3124 0001321 270.8837 298.7702 15.50612112  4815"}}, "geometry": {"type": "Point", "coordinates": [13.092265507195503, -42.532638207486436]}}, {"type": "Feature", "properties": {"norad_id": 66483, "name": "STARLINK-35654", "group": "last-30-days", "lat": -42.274426652218196, "lon": 15.659340772826704, "alt_km": 417.52811018665943, "timestamp": "2025-12-08T23:34:02.739109+00:00", "meta": {"OBJECT_NAME": "STARLINK-35654", "OBJECT_ID": "2025-262AD", "EPOCH": "2025-12-08T14:00:01.999872", "MEAN_MOTION": 15.50609538, "ECCENTRICITY": 0.00014107, "INCLINATION": 43.0003, "RA_OF_ASC_NODE": 95.3068, "ARG_OF_PERICENTER": 272.0373, "MEAN_ANOMALY": 299.5394, "EPHEMERIS_TYPE": 0, "CLASSIFICATION_TYPE": "U", "NORAD_CAT_ID": 66483, "ELEMENT_SET_NO": 999, "REV_AT_EPOCH": 497, "BSTAR": -0.0015363467, "MEAN_MOTION_DOT": -0.00089545, "MEAN_MOTION_DDOT": 0}, "tle": {"line1": "1 66483U 25262AD  25342.58335648 -.00089545  00000+0 -15363-2 0  9994", "line2": "2 66483  43.0003  95.3068 0001410 272.0373 299.5394 15.50609538  4973"}}, "geometry": {"type": "Point", "coordinates": [15.659340772826704, -42.274426652218196]}}, {"type": "Feature", "properties": {"norad_id": 66484, "name": "STARLINK-35371", "group": "last-30-days", "lat": -41.96111665777784, "lon": 18.191865921582124, "alt_km": 417.48265695132704, "timestamp": "2025-12-08T23:34:02.739121+00:00", "meta": {"OBJECT_NAME": "STARLINK-35371", "OBJECT_ID": "2025-262AE", "EPOCH": "2025-12-08T14:00:01.999872", "MEAN_MOTION": 15.50584829, "ECCENTRICITY": 0.0001486, "INCLINATION": 43.0004, "RA_OF_ASC_NODE": 95.3039, "ARG_OF_PERICENTER": 278.8844, "MEAN_ANOMALY": 294.6257, "EPHEMERIS_TYPE": 0, "CLASSIFICATION_TYPE": "U", "NORAD_CAT_ID": 66484, "ELEMENT_SET_NO": 999, "REV_AT_EPOCH": 497, "BSTAR": -0.0011474258, "MEAN_MOTION_DOT": -0.00067095, "MEAN_MOTION_DDOT": 0}, "tle": {"line1": "1 66484U 25262AE  25342.58335648 -.00067095  00000+0 -11474-2 0  9990", "line2": "2 66484  43.0004  95.3039 0001486 278.8844 294.6257 15.50584829  4972"}}, "geometry": {"type": "Point", "coordinates": [18.191865921582124, -41.96111665777784]}}, {"type": "Feature", "properties": {"norad_id": 66485, "name": "STARLINK-34774", "group": "last-30-days", "lat": 13.041180215318633, "lon": -47.24295115313654, "alt_km": 414.3482736769929, "timestamp": "2025-12-08T23:34:02.739131+00:00", "meta": {"OBJECT_NAME": "STARLINK-34774", "OBJECT_ID": "2025-263A", "EPOCH": "2025-12-08T14:00:01.999872", "MEAN_MOTION": 15.50797025, "ECCENTRICITY": 0.00014824, "INCLINATION": 42.9997, "RA_OF_ASC_NODE": 149.4819, "ARG_OF_PERICENTER": 279.992, "MEAN_ANOMALY": 172.8721, "EPHEMERIS_TYPE": 0, "CLASSIFICATION_TYPE": "U", "NORAD_CAT_ID": 66485, "ELEMENT_SET_NO": 999, "REV_AT_EPOCH": 496, "BSTAR": -0.010891314, "MEAN_MOTION_DOT": -0.00597403, "MEAN_MOTION_DDOT": 0}, "tle": {"line1": "1 66485U 25263A   25342.58335648 -.00597403  00000+0 -10891-1 0  9994", "line2": "2 66485  42.9997 149.4819 0001482 279.9920 172.8721 15.50797025  4968"}}, "geometry": {"type": "Point", "coordinates": [-47.24295115313654, 13.041180215318633]}}, {"type": "Feature", "properties": {"norad_id": 66486, "name": "STARLINK-34844", "group": "last-30-days", "lat": 11.716225813646549, "lon": -45.71530590035353, "alt_km": 413.7985227617137, "timestamp": "2025-12-08T23:34:02.739142+00:00", "meta": {"OBJECT_NAME": "STARLINK-34844", "OBJECT_ID": "2025-263B", "EPOCH": "2025-12-08T14:00:01.999872", "MEAN_MOTION": 15.50600477, "ECCENTRICITY": 0.00015405, "INCLINATION": 43.0001, "RA_OF_ASC_NODE": 149.4758, "ARG_OF_PERICENTER": 279.5819, "MEAN_ANOMALY": 175.2436, "EPHEMERIS_TYPE": 0, "CLASSIFICATION_TYPE": "U", "NORAD_CAT_ID": 66486, "ELEMENT_SET_NO": 999, "REV_AT_EPOCH": 491, "BSTAR": -0.0013693911, "MEAN_MOTION_DOT": -0.00079924, "MEAN_MOTION_DDOT": 0}, "tle": {"line1": "1 66486U 25263B   25342.58335648 -.00079924  00000+0 -13694-2 0  9993", "line2": "2 66486  43.0001 149.4758 0001540 279.5819 175.2436 15.50600477  4916"}}, "geometry": {"type": "Point", "coordinates": [-45.71530590035353, 11.716225813646549]}}, {"type": "Feature", "properties": {"norad_id": 66487, "name": "STARLINK-34733", "group": "last-30-days", "lat": 10.43548852017263, "lon": -44.2589356516794, "alt_km": 413.87693567718634, "timestamp": "2025-12-08T23:34:02.739152+00:00", "meta": {"OBJECT_NAME": "STARLINK-34733", "OBJECT_ID": "2025-263C", "EPOCH": "2025-12-08T14:00:01.999872", "MEAN_MOTION": 15.50603594, "ECCENTRICITY": 0.00015926, "INCLINATION": 43.0001, "RA_OF_ASC_NODE": 149.4724, "ARG_OF_PERICENTER": 272.3783, "MEAN_ANOMALY": 184.374, "EPHEMERIS_TYPE": 0, "CLASSIFICATION_TYPE": "U", "NORAD_CAT_ID": 66487, "ELEMENT_SET_NO": 999, "REV_AT_EPOCH": 496, "BSTAR": -0.0016349306, "MEAN_MOTION_DOT": -0.00095182, "MEAN_MOTION_DDOT": 0}, "tle": {"line1": "1 66487U 25263C   25342.58335648 -.00095182  00000+0 -16349-2 0  9998", "line2": "2 66487  43.0001 149.4724 0001592 272.3783 184.3740 15.50603594  4965"}}, "geometry": {"type": "Point", "coordinates": [-44.2589356516794, 10.43548852017263]}}, {"type": "Feature", "properties": {"norad_id": 66488, "name": "STARLINK-35515", "group": "last-30-days", "lat": 9.151900610267624, "lon": -42.82105186688276, "alt_km": 414.0876856636396, "timestamp": "2025-12-08T23:34:02.739165+00:00", "meta": {"OBJECT_NAME": "STARLINK-35515", "OBJECT_ID": "2025-263D", "EPOCH": "2025-12-08T14:00:01.999872", "MEAN_MOTION": 15.50604836, "ECCENTRICITY": 0.00014594, "INCLINATION": 43.0001, "RA_OF_ASC_NODE": 149.4667, "ARG_OF_PERICENTER": 279.0393, "MEAN_ANOMALY": 179.6194, "EPHEMERIS_TYPE": 0, "CLASSIFICATION_TYPE": "U", "NORAD_CAT_ID": 66488, "ELEMENT_SET_NO": 999, "REV_AT_EPOCH": 496, "BSTAR": -0.0014873625, "MEAN_MOTION_DOT": -0.00086718, "MEAN_MOTION_DDOT": 0}, "tle": {"line1": "1 66488U 25263D   25342.58335648 -.00086718  00000+0 -14874-2 0  9995", "line2": "2 66488  43.0001 149.4667 0001459 279.0393 179.6194 15.50604836  4965"}}, "geometry": {"type": "Point", "coordinates": [-42.82105186688276, 9.151900610267624]}}]}